[{"OBJECT_NAME":"JILIN-1 GAOFEN 3D05","OBJECT_ID":"2022-046C","EPOCH":"2026-03-09T22:14:05.502048","MEAN_MOTION":15.79566561,"ECCENTRICITY":0.00034624,"INCLINATION":97.4788,"RA_OF_ASC_NODE":183.2966,"ARG_OF_PERICENTER":238.0487,"MEAN_ANOMALY":122.0443,"EPHEMERIS_TYPE":0,"CLASSIFICATION_TYPE":"U","NORAD_CAT_ID":52390,"ELEMENT_SET_NO":999,"REV_AT_EPOCH":21496,"BSTAR":0.0012407399,"MEAN_MOTION_DOT":0.00230534,"MEAN_MOTION_DDOT":0},{"OBJECT_NAME":"STARLINK-36991","OBJECT_ID":"2026-039AB","EPOCH":"2026-03-09T22:00:01.999584","MEAN_MOTION":15.86272058,"ECCENTRICITY":0.0001714,"INCLINATION":42.9972,"RA_OF_ASC_NODE":53.2874,"ARG_OF_PERICENTER":262.3348,"MEAN_ANOMALY":98.9266,"EPHEMERIS_TYPE":0,"CLASSIFICATION_TYPE":"U","NORAD_CAT_ID":68011,"ELEMENT_SET_NO":999,"REV_AT_EPOCH":291,"BSTAR":-0.0068898297,"MEAN_MOTION_DOT":-0.0156435,"MEAN_MOTION_DDOT":0}]
